{
  "type": "FeatureCollection",
  "features": [
    {
      "type": "Feature",
      "properties": {
        "norad_id": 35071,
        "name": "COSMOS 2251 DEB",
        "group": "cosmos-2251-debris",
        "lat": 59.85974817579436,
        "lon": -42.33718630643794,
        "alt_km": 521.0064204400251,
        "timestamp": "2025-12-15T15:53:20.244053+00:00",
        "meta_object_name": "COSMOS 2251 DEB",
        "meta_object_id": "1993-036AJA",
        "meta_epoch": "2025-12-14T18:37:17.467104",
        "meta_mean_motion": 15.03505592,
        "meta_eccentricity": 0.00682979,
        "meta_inclination": 73.9312,
        "meta_ra_of_asc_node": 169.2494,
        "meta_arg_of_pericenter": 65.107,
        "meta_mean_anomaly": 295.7197,
        "meta_ephemeris_type": 0,
        "meta_classification_type": "U",
        "meta_norad_cat_id": 35071,
        "meta_element_set_no": 999,
        "meta_rev_at_epoch": 67567,
        "meta_bstar": 0.000606876,
        "meta_mean_motion_dot": 8.679e-05,
        "meta_mean_motion_ddot": 0,
        "tle_line1": "1 35071U 93036AJA 25348.77589661  .00008679  00000+0  60688-3 0  9998",
        "tle_line2": "2 35071  73.9312 169.2494 0068297  65.1070 295.7197 15.03505592675675"
      },
      "geometry": {
        "type": "Point",
        "coordinates": [
          -42.33718630643794,
          59.85974817579436
        ]
      }
    },
    {
      "type": "Feature",
      "properties": {
        "norad_id": 35073,
        "name": "COSMOS 2251 DEB",
        "group": "cosmos-2251-debris",
        "lat": -13.649838746980034,
        "lon": 148.6146630280984,
        "alt_km": 573.0383001611235,
        "timestamp": "2025-12-15T15:53:20.244061+00:00",
        "meta_object_name": "COSMOS 2251 DEB",
        "meta_object_id": "1993-036AJC",
        "meta_epoch": "2025-12-14T05:25:56.768736",
        "meta_mean_motion": 15.00781687,
        "meta_eccentricity": 0.00108644,
        "meta_inclination": 74.0011,
        "meta_ra_of_asc_node": 327.5457,
        "meta_arg_of_pericenter": 69.4063,
        "meta_mean_anomaly": 290.8289,
        "meta_ephemeris_type": 0,
        "meta_classification_type": "U",
        "meta_norad_cat_id": 35073,
        "meta_element_set_no": 999,
        "meta_rev_at_epoch": 67501,
        "meta_bstar": 0.0032108046,
        "meta_mean_motion_dot": 0.00041015,
        "meta_mean_motion_ddot": 0,
        "tle_line1": "1 35073U 93036AJC 25348.22635149  .00041015  00000+0  32108-2 0  9999",
        "tle_line2": "2 35073  74.0011 327.5457 0010864  69.4063 290.8289 15.00781687675013"
      },
      "geometry": {
        "type": "Point",
        "coordinates": [
          148.6146630280984,
          -13.649838746980034
        ]
      }
    },
    {
      "type": "Feature",
      "properties": {
        "norad_id": 35284,
        "name": "COSMOS 2251 DEB",
        "group": "cosmos-2251-debris",
        "lat": -14.663501598809281,
        "lon": -105.2483821156,
        "alt_km": 756.4819026285686,
        "timestamp": "2025-12-15T15:53:20.244071+00:00",
        "meta_object_name": "COSMOS 2251 DEB",
        "meta_object_id": "1993-036AJN",
        "meta_epoch": "2025-12-14T18:24:04.804128",
        "meta_mean_motion": 14.38320511,
        "meta_eccentricity": 0.00168739,
        "meta_inclination": 74.0491,
        "meta_ra_of_asc_node": 260.6913,
        "meta_arg_of_pericenter": 336.9489,
        "meta_mean_anomaly": 53.8225,
        "meta_ephemeris_type": 0,
        "meta_classification_type": "U",
        "meta_norad_cat_id": 35284,
        "meta_element_set_no": 999,
        "meta_rev_at_epoch": 65555,
        "meta_bstar": 0.00019800835,
        "meta_mean_motion_dot": 5.77e-06,
        "meta_mean_motion_ddot": 0,
        "tle_line1": "1 35284U 93036AJN 25348.76672227  .00000577  00000+0  19801-3 0  9994",
        "tle_line2": "2 35284  74.0491 260.6913 0016873 336.9489  53.8225 14.38320511655552"
      },
      "geometry": {
        "type": "Point",
        "coordinates": [
          -105.2483821156,
          -14.663501598809281
        ]
      }
    },
    {
      "type": "Feature",
      "properties": {
        "norad_id": 35287,
        "name": "COSMOS 2251 DEB",
        "group": "cosmos-2251-debris",
        "lat": 37.89266338745276,
        "lon": 77.8903017422227,
        "alt_km": 775.9881544828813,
        "timestamp": "2025-12-15T15:53:20.244080+00:00",
        "meta_object_name": "COSMOS 2251 DEB",
        "meta_object_id": "1993-036AJR",
        "meta_epoch": "2025-12-13T13:54:56.079936",
        "meta_mean_motion": 14.36377385,
        "meta_eccentricity": 0.0017611,
        "meta_inclination": 74.0306,
        "meta_ra_of_asc_node": 274.592,
        "meta_arg_of_pericenter": 11.0911,
        "meta_mean_anomaly": 166.1973,
        "meta_ephemeris_type": 0,
        "meta_classification_type": "U",
        "meta_norad_cat_id": 35287,
        "meta_element_set_no": 999,
        "meta_rev_at_epoch": 86904,
        "meta_bstar": 0.00020835611,
        "meta_mean_motion_dot": 5.85e-06,
        "meta_mean_motion_ddot": 0,
        "tle_line1": "1 35287U 93036AJR 25347.57981574  .00000585  00000+0  20836-3 0  9992",
        "tle_line2": "2 35287  74.0306 274.5920 0017611  11.0911 166.1973 14.36377385869042"
      },
      "geometry": {
        "type": "Point",
        "coordinates": [
          77.8903017422227,
          37.89266338745276
        ]
      }
    },
    {
      "type": "Feature",
      "properties": {
        "norad_id": 35288,
        "name": "COSMOS 2251 DEB",
        "group": "cosmos-2251-debris",
        "lat": -53.260760078244324,
        "lon": -147.79598513645675,
        "alt_km": 654.4255250483993,
        "timestamp": "2025-12-15T15:53:20.244089+00:00",
        "meta_object_name": "COSMOS 2251 DEB",
        "meta_object_id": "1993-036AJS",
        "meta_epoch": "2025-12-13T08:44:45.008448",
        "meta_mean_motion": 14.65469737,
        "meta_eccentricity": 0.00394163,
        "meta_inclination": 73.9514,
        "meta_ra_of_asc_node": 13.9647,
        "meta_arg_of_pericenter": 247.3959,
        "meta_mean_anomaly": 112.3037,
        "meta_ephemeris_type": 0,
        "meta_classification_type": "U",
        "meta_norad_cat_id": 35288,
        "meta_element_set_no": 999,
        "meta_rev_at_epoch": 87887,
        "meta_bstar": 0.0016378254,
        "meta_mean_motion_dot": 8.951e-05,
        "meta_mean_motion_ddot": 0,
        "tle_line1": "1 35288U 93036AJS 25347.36440982  .00008951  00000+0  16378-2 0  9993",
        "tle_line2": "2 35288  73.9514  13.9647 0039416 247.3959 112.3037 14.65469737878876"
      },
      "geometry": {
        "type": "Point",
        "coordinates": [
          -147.79598513645675,
          -53.260760078244324
        ]
      }
    },
    {
      "type": "Feature",
      "properties": {
        "norad_id": 35290,
        "name": "COSMOS 2251 DEB",
        "group": "cosmos-2251-debris",
        "lat": -44.925140271344056,
        "lon": 37.039466683081905,
        "alt_km": 634.9401607048712,
        "timestamp": "2025-12-15T15:53:20.244098+00:00",
        "meta_object_name": "COSMOS 2251 DEB",
        "meta_object_id": "1993-036AJU",
        "meta_epoch": "2025-12-14T10:54:36.283104",
        "meta_mean_motion": 14.80453244,
        "meta_eccentricity": 0.00020944,
        "meta_inclination": 74.0055,
        "meta_ra_of_asc_node": 56.0467,
        "meta_arg_of_pericenter": 193.1019,
        "meta_mean_anomaly": 167.0103,
        "meta_ephemeris_type": 0,
        "meta_classification_type": "U",
        "meta_norad_cat_id": 35290,
        "meta_element_set_no": 999,
        "meta_rev_at_epoch": 87983,
        "meta_bstar": 0.0020690014,
        "meta_mean_motion_dot": 0.00015828,
        "meta_mean_motion_ddot": 0,
        "tle_line1": "1 35290U 93036AJU 25348.45458661  .00015828  00000+0  20690-2 0  9993",
        "tle_line2": "2 35290  74.0055  56.0467 0002094 193.1019 167.0103 14.80453244879837"
      },
      "geometry": {
        "type": "Point",
        "coordinates": [
          37.039466683081905,
          -44.925140271344056
        ]
      }
    },
    {
      "type": "Feature",
      "properties": {
        "norad_id": 35432,
        "name": "COSMOS 2251 DEB",
        "group": "cosmos-2251-debris",
        "lat": -73.55253795789123,
        "lon": -66.71120932386158,
        "alt_km": 497.6907029573049,
        "timestamp": "2025-12-15T15:53:20.244106+00:00",
        "meta_object_name": "COSMOS 2251 DEB",
        "meta_object_id": "1993-036AKA",
        "meta_epoch": "2025-12-14T11:53:53.822112",
        "meta_mean_motion": 15.23399104,
        "meta_eccentricity": 0.00124915,
        "meta_inclination": 74.0198,
        "meta_ra_of_asc_node": 11.8484,
        "meta_arg_of_pericenter": 339.2428,
        "meta_mean_anomaly": 20.8262,
        "meta_ephemeris_type": 0,
        "meta_classification_type": "U",
        "meta_norad_cat_id": 35432,
        "meta_element_set_no": 999,
        "meta_rev_at_epoch": 87530,
        "meta_bstar": 0.0051316466,
        "meta_mean_motion_dot": 0.00124451,
        "meta_mean_motion_ddot": 0,
        "tle_line1": "1 35432U 93036AKA 25348.49576183  .00124451  00000+0  51316-2 0  9997",
        "tle_line2": "2 35432  74.0198  11.8484 0012491 339.2428  20.8262 15.23399104875302"
      },
      "geometry": {
        "type": "Point",
        "coordinates": [
          -66.71120932386158,
          -73.55253795789123
        ]
      }
    }
  ]
}